[
    {
        "CCSDS_OMM_VERS": "3.0",
        "COMMENT": "GENERATED VIA SPACE-TRACK.ORG API",
        "CREATION_DATE": "2025-02-26T22:46:32",
        "ORIGINATOR": "18 SPCS",
        "OBJECT_NAME": "GALILEO 9 (205)",
        "OBJECT_ID": "2015-045A",
        "CENTER_NAME": "EARTH",
        "REF_FRAME": "TEME",
        "TIME_SYSTEM": "UTC",
        "MEAN_ELEMENT_THEORY": "SGP4",
        "EPOCH": "2025-02-26T12:23:46.457088",
        "MEAN_MOTION": "1.70473560",
        "ECCENTRICITY": "0.00062130",
        "INCLINATION": "55.1114",
        "RA_OF_ASC_NODE": "234.7412",
        "ARG_OF_PERICENTER": "47.9432",
        "MEAN_ANOMALY": "312.0913",
        "EPHEMERIS_TYPE": "0",
        "CLASSIFICATION_TYPE": "U",
        "NORAD_CAT_ID": "40889",
        "ELEMENT_SET_NO": "999",
        "REV_AT_EPOCH": "5890",
        "BSTAR": "0.00000000000000",
        "MEAN_MOTION_DOT": "0.00000066",
        "MEAN_MOTION_DDOT": "0.0000000000000",
        "SEMIMAJOR_AXIS": "29600.371",
        "PERIOD": "844.706",
        "APOAPSIS": "23240.627",
        "PERIAPSIS": "23203.845",
        "OBJECT_TYPE": "PAYLOAD",
        "RCS_SIZE": "LARGE",
        "COUNTRY_CODE": "ESA",
        "LAUNCH_DATE": "2015-09-11",
        "SITE": "FRGUI",
        "DECAY_DATE": null,
        "FILE": "4653284",
        "GP_ID": "281770634",
        "TLE_LINE0": "0 GALILEO 9 (205)",
        "TLE_LINE1": "1 40889U 15045A   25057.51650992  .00000066  00000-0  00000+0 0  9991",
        "TLE_LINE2": "2 40889  55.1114 234.7412 0006213  47.9432 312.0913  1.70473560 58906"
    }
]